STARLINK-31528          
1 59010U 24036N   26068.46491283 -.00005874  00000+0 -18662-3 0  9990
2 59010  53.1616  79.5417 0001718  57.5039 302.6127 15.30151110115284
TOMORROW-S4             
1 62386U 24247K   26068.53305366  .00012677  00000+0  46927-3 0  9990
2 62386  44.9818 117.9996 0004434 210.4078 149.6548 15.27717249 67702
